STARLINK-4675           
1 53601U 22104P   26068.73445182  .00000843  00000+0  71025-4 0  9993
2 53601  53.2157 243.7750 0001138  90.1206 269.9916 15.08838402195623
LEMUR-2-STELLA          
1 60533U 24149BT  26068.72657350  .00013685  00000+0  85776-3 0  9992
2 60533  97.6764 150.9122 0001299  95.1117 265.0260 15.09464064 85488
